OBJECT_NAME,OBJECT_ID,EPOCH,MEAN_MOTION,ECCENTRICITY,INCLINATION,RA_OF_ASC_NODE,ARG_OF_PERICENTER,MEAN_ANOMALY,EPHEMERIS_TYPE,CLASSIFICATION_TYPE,NORAD_CAT_ID,ELEMENT_SET_NO,REV_AT_EPOCH,BSTAR,MEAN_MOTION_DOT,MEAN_MOTION_DDOT
STARLINK-11313 [DTC],2024-175N,2026-07-18T04:49:05.306304,15.69709472,.00012528,53.1596,132.9668,97.4341,262.6819,0,U,61255,999,10386,.6373613E-5,.183E-5,0
STARLINK-32431,2024-175P,2026-07-18T07:33:06.785568,15.34389561,.00010602,53.1602,305.8321,79.3744,280.7378,0,U,61256,999,10147,.53442067E-4,.1429E-4,0
STARLINK-32432,2024-175Q,2026-07-17T17:19:51.436704,15.34389308,.00009253,53.1603,308.5324,113.9595,246.1505,0,U,61257,999,10138,-.3736805E-5,-.502E-5,0
STARLINK-32382,2024-175R,2026-07-17T17:01:40.634112,15.34389168,.00009499,53.1606,308.4561,82.6804,277.4307,0,U,61258,999,10138,.37675262E-4,.897E-5,0
STARLINK-32435,2024-175S,2026-07-17T19:48:04.397760,15.34381862,.00013393,53.1586,307.7579,84.7107,275.4049,0,U,61259,999,10140,.54576342E-3,.18097E-3,0
STARLINK-32474,2024-175T,2026-07-18T07:51:17.283168,15.34388049,.00011671,53.1593,305.9091,112.9262,247.1864,0,U,61260,999,10147,-.7750402E-5,-.638E-5,0
STARLINK-32447,2024-175U,2026-07-18T07:42:12.103488,15.34392164,.00009341,53.1599,305.8690,83.1472,276.9637,0,U,61261,999,10147,-.106615E-6,-.38E-5,0
STARLINK-32446,2024-175V,2026-07-17T07:20:44.029824,15.34379549,.0000739,53.1605,310.2067,44.4065,315.6996,0,U,61262,999,10132,.69501E-5,-.141E-5,0
HULIANWAN GAOGUI-03 (HG-03),2024-181A,2026-07-18T06:00:56.534112,1.00271766,.00012894,0.0518,355.8404,99.8054,213.5149,0,U,61503,999,713,0,-.249E-5,0
STARLINK-32174,2024-183A,2026-07-17T09:51:20.045088,15.34393075,.0001212,53.1579,245.6835,97.3121,262.8019,0,U,61509,999,9971,.11225E-3,.3417E-4,0
STARLINK-32139,2024-183B,2026-07-18T04:30:24.660288,15.31704892,.00017751,53.1608,255.5001,79.1183,281.0019,0,U,61510,999,9964,-.4380911E-5,-.501E-5,0
STARLINK-32140,2024-183C,2026-07-17T13:57:52.507008,15.31701591,.0001036,53.1594,258.1202,82.3444,277.7675,0,U,61511,999,9955,.17198E-4,.169E-5,0
STARLINK-32201,2024-183D,2026-07-18T03:15:12.255264,15.34389645,.00010223,53.1584,242.3869,80.6236,279.4882,0,U,61512,999,9981,-.19927064E-4,-.1049E-4,0
STARLINK-32030,2024-183E,2026-07-18T04:13:34.756608,15.34389785,.00012433,53.1565,256.1340,78.2615,281.8527,0,U,61513,999,9963,.790361E-5,-.109E-5,0
STARLINK-31837,2024-183F,2026-07-18T04:07:30.711072,15.34384887,.00011347,53.1597,256.0995,96.8090,263.3042,0,U,61514,999,9963,.15229896E-4,.138E-5,0
STARLINK-32136,2024-183G,2026-07-17T13:10:58.156608,15.31698253,.000145,53.1581,258.6270,83.3858,276.7308,0,U,61515,999,9954,-.70702E-5,-.585E-5,0
STARLINK-32047,2024-183H,2026-07-16T10:00:01.395648,15.31702337,.000109,53.1591,263.6319,93.6365,266.4761,0,U,61516,999,9937,.33185E-4,.665E-5,0
STARLINK-31756,2024-183J,2026-07-16T14:39:25.535808,15.34400215,.000096,53.1601,263.3714,87.3762,272.7351,0,U,61517,999,9939,.93791E-4,.2794E-4,0
STARLINK-32172,2024-183K,2026-07-18T04:10:14.363904,15.31704848,.00008368,53.1576,255.4009,75.6829,284.4266,0,U,61518,999,9964,-.6211707E-5,-.558E-5,0
STARLINK-32338,2024-183L,2026-07-18T04:14:09.310560,15.34057017,.00011072,53.1596,248.2910,72.7257,287.3866,0,U,61519,999,9974,.15738946E-2,.52596E-3,0
STARLINK-32306,2024-183M,2026-07-17T14:31:28.799616,15.31701098,.0001177,53.1562,258.2494,90.9461,269.1675,0,U,61520,999,9955,.16922E-3,.489E-4,0
STARLINK-32297,2024-183N,2026-07-18T04:12:08.798976,15.30196056,.00005227,53.1593,256.1096,1.1339,358.9662,0,U,61521,999,9963,-.106669E-6,-.362E-5,0
STARLINK-32260,2024-183P,2026-07-17T04:25:11.105184,15.33730469,.00028055,53.1573,259.8815,8.1858,351.9190,0,U,61522,999,9949,.32609141E-3,.10428E-3,0
STARLINK-32305,2024-183Q,2026-07-18T03:20:39.211872,15.30187308,.00010322,53.1589,256.6019,102.0311,258.0806,0,U,61523,999,9962,-.39255388E-4,-.1521E-4,0
STARLINK-32296,2024-183R,2026-07-17T04:27:23.357664,15.31700040,.00008799,53.1590,259.8964,73.5232,286.5866,0,U,61524,999,9949,.42312881E-4,.948E-5,0
STARLINK-32298,2024-183S,2026-07-17T11:10:07.705344,15.31698272,.000059,53.1586,258.7964,59.0412,301.0647,0,U,61525,999,9953,.10152E-3,.2787E-4,0
STARLINK-32293,2024-183T,2026-07-17T11:10:54.414048,15.34390420,.0001273,53.1580,259.5060,89.9265,270.1884,0,U,61526,999,9952,-.34833E-5,-.494E-5,0
STARLINK-32313,2024-183U,2026-07-18T04:25:41.543040,15.34390889,.00010148,53.1565,256.1683,78.2194,281.8922,0,U,61527,999,9963,-.10731585E-4,-.738E-5,0
STARLINK-32319,2024-183V,2026-07-17T13:04:22.493856,15.31710912,.0000759,53.1594,259.2892,108.8475,251.2609,0,U,61528,999,9953,.11017E-3,.3056E-4,0
STARLINK-32351,2024-183W,2026-07-17T12:55:00.948288,15.30191708,.0001335,53.1596,256.4298,70.9878,289.1267,0,U,61529,999,9957,-.14988E-4,-.803E-5,0
STARLINK-32261,2024-183X,2026-07-16T10:40:20.963712,15.31700301,.0000881,53.1586,263.8181,78.1208,281.9892,0,U,61530,999,9937,.33066E-4,.661E-5,0
STARLINK-32358,2024-183Y,2026-07-18T03:25:55.779744,15.34391208,.00007069,53.1598,248.8055,81.3355,278.7727,0,U,61531,999,9973,-.10776943E-4,-.74E-5,0
STARLINK-11354 [DTC],2024-184A,2026-07-18T07:45:24.429888,15.69707787,.00009186,53.1590,312.3733,72.0911,288.0207,0,U,61532,999,10093,.7327286E-5,.299E-5,0
STARLINK-11323 [DTC],2024-184B,2026-07-17T19:17:48.611904,15.69710820,.00010967,53.1584,314.8201,63.2585,296.8545,0,U,61533,999,10085,-.1824043E-5,-.81E-5,0
STARLINK-11338 [DTC],2024-184C,2026-07-17T17:53:11.483520,15.69708000,.00011791,53.1586,315.1682,69.3185,290.7959,0,U,61534,999,10084,-.4465183E-5,-.113E-4,0
STARLINK-11362 [DTC],2024-184D,2026-07-18T07:17:09.093408,15.69709310,.00011949,53.1589,312.2426,86.9160,273.1994,0,U,61535,999,10093,.16466606E-4,.1406E-4,0
STARLINK-11295 [DTC],2024-184E,2026-07-17T17:39:03.693024,15.69711093,.0001243,53.1593,315.0975,115.4846,244.6300,0,U,61536,999,10084,.4750734E-5,-.13E-6,0
STARLINK-11325 [DTC],2024-184G,2026-07-18T00:56:17.323296,15.69707435,.00011979,53.1600,313.4324,110.0715,250.0432,0,U,61538,999,10089,.2604926E-5,-.273E-5,0
STARLINK-11332 [DTC],2024-184H,2026-07-18T06:55:57.796896,15.69709029,.00010962,53.1586,312.1627,119.5235,240.5892,0,U,61539,999,10093,-.2990805E-5,-.951E-5,0
STARLINK-11350 [DTC],2024-184J,2026-07-17T17:03:44.441856,15.69710971,.00010904,53.1596,314.9343,134.6589,225.4517,0,U,61540,999,10084,-.3088362E-5,-.963E-5,0
STARLINK-11357 [DTC],2024-184K,2026-07-18T00:35:14.360928,15.69712523,.00006183,53.1576,314.0669,78.1357,281.9731,0,U,61541,999,10088,-.940763E-6,-.702E-5,0
STARLINK-11322 [DTC],2024-184L,2026-07-17T16:49:45.682752,15.69710718,.00007667,53.1588,315.6049,115.9469,244.1628,0,U,61542,999,10189,-.9806995E-5,-.1776E-4,0
STARLINK-11364 [DTC],2024-184M,2026-07-17T15:11:00.870144,15.69706868,.00010624,53.1601,315.8868,67.6139,292.4992,0,U,61543,999,10082,-.1585684E-5,-.781E-5,0
STARLINK-11349 [DTC],2024-184N,2026-07-17T18:07:19.286976,15.69691436,.00011378,53.1595,315.2261,91.5910,268.5238,0,U,61544,999,10084,.3474812E-4,.362E-4,0
STARLINK-32406,2024-184P,2026-07-18T04:23:37.516704,15.34384298,.00015123,53.1593,126.5653,95.5513,264.5662,0,U,61545,999,9850,.18917516E-4,.262E-5,0
STARLINK-32445,2024-184Q,2026-07-18T00:27:29.989440,15.35235747,.00022424,53.1585,126.9745,81.5057,278.6200,0,U,61546,999,9848,.31495467E-3,.10564E-3,0
STARLINK-32411,2024-184R,2026-07-18T04:41:47.192640,15.34379879,.0000901,53.1592,126.6479,75.6143,284.4959,0,U,61547,999,9850,.6601329E-5,-.153E-5,0
STARLINK-32424,2024-184S,2026-07-18T02:22:33.369312,15.34388333,.00013026,53.1582,126.7608,96.8012,263.3139,0,U,61548,999,9849,.17788619E-4,.225E-5,0
STARLINK-32389,2024-184T,2026-07-18T02:28:32.570400,15.30199815,.00015615,53.1601,128.2100,103.6317,256.4858,0,U,61549,999,9847,-.22688696E-4,-.1031E-4,0
STARLINK-32476,2024-184U,2026-07-18T02:31:38.856576,15.34387223,.00014755,53.1607,126.7971,99.8245,260.2925,0,U,61550,999,9849,.18668794E-4,.254E-5,0
STARLINK-32366,2024-184V,2026-07-18T02:04:22.450080,15.34393138,.00013071,53.1599,126.6835,83.6360,276.4792,0,U,61551,999,9849,.43837543E-4,.1105E-4,0
QIANFAN-19,2024-185A,2026-07-18T06:27:49.898592,14.14495473,.000604,88.9811,53.0165,345.5454,14.5559,0,U,61552,999,10041,.10422516E-3,.214E-5,0
QIANFAN-20,2024-185B,2026-07-18T05:16:48.112320,14.09037051,.00065913,88.9807,53.5617,31.0538,329.1034,0,U,61553,999,10011,.86811239E-4,.164E-5,0
QIANFAN-21,2024-185C,2026-07-18T06:48:35.846208,14.22883088,.00115821,88.9728,51.5019,26.1788,333.9987,0,U,61554,999,10090,.11698873E-3,.277E-5,0
QIANFAN-22,2024-185D,2026-07-18T06:08:50.964288,13.86408237,.00083408,88.9792,55.4170,58.9625,301.2364,0,U,61555,999,9907,.90795813E-4,.118E-5,0
QIANFAN-23,2024-185E,2026-07-18T06:56:35.579616,14.16519564,.00069683,88.9805,52.7217,353.7890,6.3210,0,U,61556,999,10054,.95411565E-4,.204E-5,0
QIANFAN-24,2024-185F,2026-07-18T05:49:16.204224,14.24100335,.00078125,88.9786,51.7785,320.6268,39.4356,0,U,61557,999,10097,.11961976E-3,.289E-5,0
QIANFAN-25,2024-185G,2026-07-18T06:47:04.977600,14.06096501,.00125244,88.9801,53.5721,25.6755,334.5046,0,U,61558,999,10007,.97259315E-4,.174E-5,0
QIANFAN-26,2024-185H,2026-07-18T05:53:05.000928,13.77924737,.00078755,88.9799,56.2759,76.9493,283.2552,0,U,61559,999,9862,.12044561E-3,.134E-5,0
QIANFAN-27,2024-185J,2026-07-18T06:23:37.925088,14.27557703,.00053337,88.9798,51.4461,308.4297,51.6418,0,U,61560,999,10119,.58562881E-4,.159E-5,0
QIANFAN-28,2024-185K,2026-07-18T06:26:40.898688,14.28420722,.0005144,88.9815,51.4592,306.0582,54.0135,0,U,61561,999,10122,.11830507E-3,.31E-5,0
QIANFAN-29,2024-185L,2026-07-18T06:06:44.858304,13.51079220,.00111265,88.9772,58.8294,133.3633,226.8447,0,U,61562,999,9716,.11538114E-3,.87E-6,0
QIANFAN-30,2024-185M,2026-07-18T05:54:26.377632,13.50061372,.0009086,88.9792,58.4388,119.5835,240.6222,0,U,61563,999,9741,-.10878767E-4,.5E-7,0
QIANFAN-31,2024-185N,2026-07-18T06:18:44.984160,13.58047469,.00088643,88.9776,57.8937,107.7821,252.4302,0,U,61564,999,9768,.10988308E-3,.92E-6,0
